# From MPEC 2022-S20
C/1995 O1 (Hale-Bopp),e,89.2995,282.7085,130.4115,176.9565,0.0004187,0.99496848,0.0000,03/29.6298/1997,2000,g -2.0,4.0
# From NK 1615
P/1996 R2 (Lagerkvist),e,2.6009,40.0088,333.3919,3.774609,0.1343990,0.31456600,178.7653,10/05.0/2022,2000,g 11.5,4.0
# From MPC 75703
P/1998 VS24 (LINEAR),e,5.0266,159.0396,244.6224,4.525486,0.1023779,0.24312392,175.9876,10/05.0/2022,2000,g 13.0,2.0
# From NK 731
P/1999 RO28 (LONEOS),e,7.5657,137.8730,231.2955,3.426509,0.1553911,0.67252211,185.8566,10/05.0/2022,2000,g 20.0,2.0
# From MPC 75704
P/1999 XN120 (Catalina),e,5.0298,285.2963,161.6911,4.178997,0.1153708,0.21039209,224.4095,10/05.0/2022,2000,g 13.5,2.0
# From NK 744
P/2000 R2 (LINEAR),e,11.6868,160.2856,176.5874,3.467640,0.1526346,0.53143735,183.9482,10/05.0/2022,2000,g 18.0,4.0
# From MPC 43019
P/2001 H5 (NEAT),e,8.3671,328.6845,224.7422,6.096007,0.0654841,0.59820335,166.8500,10/05.0/2022,2000,g 12.0,4.0
# From MPC 75704
P/2001 Q6 (NEAT),e,56.9115,22.1847,42.9377,7.958431,0.0438998,0.82333922,337.5496,10/05.0/2022,2000,g 13.5,4.0
# From MPC 47727
P/2002 EJ57 (LINEAR),e,4.9775,330.3088,167.2907,6.463664,0.0599772,0.59237646,94.2025,10/05.0/2022,2000,g 12.5,4.0
# From MPC109588
P/2002 T6 (NEAT-LINEAR),e,10.8515,206.0714,219.5580,7.727875,0.0458790,0.56243024,329.9981,10/05.0/2022,2000,g 10.5,4.0
# From MPC 75007
C/2002 VQ94 (LINEAR),e,70.6891,35.1386,99.9877,184.2949,0.0003939,0.96306049,2.4000,10/05.0/2022,2000,g  9.5,2.0
# From MPC 50354
P/2003 F2 (NEAT),e,11.6109,358.9949,192.2607,6.502006,0.0594474,0.54140809,62.8839,10/05.0/2022,2000,g 16.5,2.0
# From MPC 50139
P/2003 QX29 (NEAT),e,11.3932,264.5165,37.6577,8.016215,0.0434260,0.47257688,314.9894,10/05.0/2022,2000,g  8.5,4.0
# From MPC105235
P/2003 T12 (SOHO),e,11.0225,174.5861,219.7486,2.585470,0.2370800,0.77013007,208.8074,10/05.0/2022,2000,g 17.0,4.0
# From MPC 82312
P/2004 A1 (LONEOS),e,10.5517,124.8582,21.1047,7.970729,0.0437983,0.31006043,291.4138,10/05.0/2022,2000,g  6.5,4.0
# From MPC 54558
P/2004 DO29 (Spacewatch-LINEAR),e,14.5312,147.3764,40.5144,7.295268,0.0500198,0.44126011,329.5986,10/05.0/2022,2000,g 13.5,2.0
# From MPC 54823
P/2004 FY140 (LINEAR),e,2.1348,326.7798,242.1191,4.906796,0.0906791,0.16785693,239.1203,10/05.0/2022,2000,g 12.5,2.0
# From MPC 53304
P/2004 R3 (LINEAR-NEAT),e,12.7818,305.3235,37.6918,4.764653,0.0947670,0.25575157,35.9551,10/05.0/2022,2000,g 14.5,4.0
# From MPC 55521
P/2004 V3 (Siding Spring),e,50.4438,356.1297,322.4824,7.130303,0.0517657,0.44594832,338.5675,10/05.0/2022,2000,g 11.5,4.0
# From MPC 75705
P/2004 V5 (LINEAR-Hill),e,19.3426,47.7836,87.5708,7.989352,0.0436452,0.44469114,282.5646,10/05.0/2022,2000,g  8.0,4.0
# From MPC 54164
P/2005 E1 (Tubbiolo),e,4.2632,335.5754,193.8935,7.049962,0.0526531,0.37555431,341.1297,10/05.0/2022,2000,g 10.0,4.0
# From MPC 79019
P/2005 J1 (McNaught),e,31.7397,268.8278,338.9316,3.571843,0.1460043,0.56903646,212.3767,10/05.0/2022,2000,g 16.5,4.0
# From MPC 74246
P/2005 L1 (McNaught),e,7.7304,138.2300,150.0392,3.989554,0.1236852,0.21213939,41.3787,10/05.0/2022,2000,g  9.5,4.0
# From MPC 75706
P/2005 S2 (Skiff),e,3.1356,161.2233,229.4109,8.005512,0.0435131,0.19851575,260.1149,10/05.0/2022,2000,g  7.5,4.0
# From MPC 75706
P/2005 SB216 (LONEOS),e,24.1134,1.1249,83.2486,7.145022,0.0516058,0.46459583,298.1422,10/05.0/2022,2000,g 12.0,2.0
# From MPC 73461
P/2005 T3 (Read),e,6.2237,27.6706,6.6794,7.588263,0.0471510,0.17534496,293.5399,10/05.0/2022,2000,g  9.0,4.0
# From MPC 73461
P/2005 T4 (SWAN),e,160.2668,25.9122,41.8295,9.359236,0.0344226,0.92977064,213.6176,10/05.0/2022,2000,g 15.0,4.0
# From MPC 75706
P/2005 T5 (Broughton),e,21.3784,57.0008,304.6874,7.281000,0.0501669,0.55265874,310.6748,10/05.0/2022,2000,g 11.0,4.0
# From MPC 75707
P/2006 HR30 (Siding Spring),e,31.8584,309.8372,117.3719,7.808919,0.0451666,0.84307780,260.7975,10/05.0/2022,2000,g 11.0,4.0
# From MPC 75707
P/2007 A2 (Christensen),e,26.4854,300.9133,186.6989,6.337058,0.0617835,0.55837232,356.5991,10/05.0/2022,2000,g 13.5,4.0
# From MPC 75707
P/2007 C2 (Catalina),e,8.6077,275.3061,180.1701,6.998757,0.0532320,0.47208139,292.6483,10/05.0/2022,2000,g 10.0,4.0
# From MPC 84315
C/2007 D1 (LINEAR),e,41.5016,171.2331,339.8064,1197,0.0000238,0.99265656,0.0000,06/07.1532/2007,2000,g  3.5,4.0
# From MPC 82314
P/2007 K2 (Gibbs),e,7.6275,188.6344,347.3523,7.275383,0.0502250,0.68308910,282.2930,10/05.0/2022,2000,g 14.0,4.0
# From MPC 60925
P/2007 Q2 (Gilmore),e,10.2027,172.1529,162.8510,5.657291,0.0732472,0.67003211,49.5907,10/05.0/2022,2000,g 16.0,4.0
# From MPC 73462
P/2007 S1 (Zhao),e,5.9611,141.3537,245.2175,3.821171,0.1319500,0.33926629,359.7493,10/05.0/2022,2000,g 13.0,4.0
# From MPC 61994
P/2007 T2 (Kowalski),e,9.7521,3.3773,359.6635,3.045682,0.1854288,0.78567487,284.2343,10/05.0/2022,2000,g 18.5,4.0
# From MPC 75709
P/2008 L2 (Hill),e,25.8682,218.0177,141.2625,6.027696,0.0666004,0.61345446,345.4770,10/05.0/2022,2000,g 12.5,4.0
# From MPC 64114
P/2008 O3 (Boattini),e,32.3300,47.5644,341.1651,8.215620,0.0418546,0.69634690,219.2669,10/05.0/2022,2000,g 13.0,4.0
# From MPC 75710
P/2008 Y3 (McNaught),e,38.7786,262.8552,238.0473,8.047654,0.0431718,0.44583021,217.6717,10/05.0/2022,2000,g  8.5,4.0
# From MPC 75710
P/2009 B1 (Boattini),e,22.2350,297.0753,128.8996,6.737143,0.0563625,0.63558519,283.0783,10/05.0/2022,2000,g 13.0,4.0
# From MPC 66466
C/2009 G1 (STEREO),e,108.5211,120.5536,175.5068,464.7357,0.0000984,0.99754824,0.0000,04/18.2848/2009,2000,g  9.0,4.0
# From MPC 75710
P/2009 O3 (Hill),e,16.2888,183.6850,154.4889,7.766969,0.0455330,0.68778174,222.0610,10/05.0/2022,2000,g 12.5,4.0
# From MPC 68902
P/2009 Q5 (McNaught),e,40.9853,160.2749,209.1035,7.430006,0.0486654,0.60982695,232.0898,10/05.0/2022,2000,g 10.0,4.0
# From MPC112389
P/2009 T2 (La Sagra),e,27.6044,215.8969,216.3260,7.718811,0.0459598,0.76640117,214.2516,10/05.0/2022,2000,g 14.0,4.0
# From MPC105235
P/2009 WX51 (Catalina),e,9.5946,31.5673,118.2603,3.082783,0.1820915,0.73942279,125.3003,10/05.0/2022,2000,g 19.0,2.0
# From MPC 74247
P/2009 Y2 (Kowalski),e,29.9608,262.0418,172.1331,6.549680,0.0587995,0.63674622,270.6614,10/05.0/2022,2000,g 13.0,4.0
# From MPC 75711
P/2010 A3 (Hill),e,14.8158,63.6364,42.2818,6.086407,0.0656391,0.73372956,301.6564,10/05.0/2022,2000,g 14.0,4.0
# From MPC 75008
P/2010 C1 (Scotti),e,9.1258,141.8727,3.3811,7.105088,0.0520415,0.26038856,245.7644,10/05.0/2022,2000,g  9.5,4.0
# From MPC 75008
P/2010 D2 (WISE),e,57.0978,319.8835,119.9342,6.721083,0.0565647,0.45141682,261.6431,10/05.0/2022,2000,g 16.0,4.0
# From MPC 75009
P/2010 E2 (Jarnac),e,15.3849,177.8199,8.3043,8.640242,0.0388075,0.71943060,177.6533,10/05.0/2022,2000,g 14.0,4.0
# From MPC 72851
P/2010 H2 (Vales),e,14.2788,64.1866,128.0160,3.832163,0.1313827,0.19660131,243.4566,10/05.0/2022,2000,g  6.0,4.0
# From MPC 70361
P/2010 H3 (SOHO),e,23.0797,77.1011,26.1404,3.036294,0.1862895,0.98537638,0.0000,02/07.8671/2021,2000,g 20.0,2.0
# From MPC 73463
P/2010 H4 (Scotti),e,2.3178,44.7261,179.3245,6.599940,0.0581292,0.26618091,261.7739,10/05.0/2022,2000,g 10.5,4.0
# From MPC 74637
P/2010 H5 (Scotti),e,14.0572,24.7934,174.7513,7.170698,0.0513289,0.15251523,235.2938,10/05.0/2022,2000,g 13.0,2.0
# From MPC 98558
P/2010 J3 (McMillan),e,13.2658,106.4658,157.5796,8.980071,0.0366256,0.72560662,162.0165,10/05.0/2022,2000,g 11.0,4.0
# From MPC 84315
P/2010 JC81 (WISE),e,38.8207,30.8681,12.4272,8.105961,0.0427068,0.77787311,178.5677,10/05.0/2022,2000,g  9.0,4.0
# From MPC 74248
P/2010 T2 (PANSTARRS),e,7.8874,58.5521,352.6620,5.569695,0.0749820,0.32347031,320.4165,10/05.0/2022,2000,g 11.5,4.0
# From MPC 98558
P/2010 TO20 (LINEAR-Grauer),e,2.4787,43.2841,267.4800,5.833039,0.0699619,0.05565248,356.2105,10/05.0/2022,2000,g  9.0,4.0
# From MPC 82316
P/2010 U1 (Boattini),e,8.2201,280.6805,86.2471,6.501907,0.0594488,0.24913086,274.8783,10/05.0/2022,2000,g  9.5,4.0
# From MPEC 2022-OB6
C/2010 U3 (Boattini),e,55.5542,42.9950,88.0397,2539,0.0000077,0.99667510,0.0000,02/25.2725/2019,2000,g  1.0,4.0
# From MPC 79021
P/2010 UH55 (Spacewatch),e,8.0382,232.9056,225.1442,6.654609,0.0574143,0.56371051,241.2092,10/05.0/2022,2000,g 11.0,4.0
# From MPC 75009
P/2010 WK (LINEAR),e,11.4016,11.3337,40.9799,5.762298,0.0712542,0.69048709,313.2993,10/05.0/2022,2000,g 14.5,2.0
# From MPC 84021
P/2011 C2 (Gibbs),e,10.8873,12.1203,160.5179,7.412574,0.0488372,0.26914293,192.6269,10/05.0/2022,2000,g  9.0,4.0
# From MPC 79866
P/2011 FR143 (Lemmon),e,15.9756,190.9491,349.9388,6.863452,0.0548138,0.45063044,232.7987,10/05.0/2022,2000,g 14.0,2.0
# From MPC 82317
P/2011 JB15 (Spacewatch-Boattini),e,19.1465,153.5872,111.0526,7.365916,0.0493019,0.31603056,192.9633,10/05.0/2022,2000,g  9.0,4.0
# From MPC 87913
P/2011 N1 (ASH),e,35.7651,77.5781,330.3844,6.244788,0.0631579,0.54499011,239.1974,10/05.0/2022,2000,g 11.5,4.0
# From MPC 75714
P/2011 NO1 (Elenin),e,15.2445,295.8270,263.7091,5.531635,0.0757572,0.77459608,324.5430,10/05.0/2022,2000,g 15.0,4.0
# From MPEC 2022-ED3
P/2011 P1 (McNaught),e,5.6609,4.2314,349.1366,7.459419,0.0483779,0.32765696,215.1789,10/05.0/2022,2000,g  9.0,4.0
# From MPEC 2022-HC2
P/2011 S1 (Gibbs),e,2.6874,218.8299,192.4904,8.583142,0.0391954,0.20147266,116.5387,10/05.0/2022,2000,g  8.0,4.0
# From MPC 79022
P/2011 UA134 (Spacewatch-PANSTARRS),e,10.4404,40.3989,32.4018,5.609616,0.0741830,0.62975832,295.7533,10/05.0/2022,2000,g 17.5,4.0
# From MPC 77406
P/2011 V1 (Boattini),e,7.3749,46.7845,269.3781,3.857107,0.1301102,0.55012650,190.4380,10/05.0/2022,2000,g 15.5,4.0
# From MPC 82718
P/2011 W1 (PANSTARRS),e,3.7186,161.7847,282.7773,4.665884,0.0977920,0.28800605,23.3851,10/05.0/2022,2000,g 11.5,4.0
# From MPC 79342
P/2011 Y2 (Boattini),e,6.3772,309.3313,131.9456,6.238143,0.0632588,0.71024453,244.6039,10/05.0/2022,2000,g 15.0,4.0
# From MPEC 2022-K19
P/2012 B1 (PANSTARRS),e,7.6101,36.2165,162.3921,6.531751,0.0590418,0.40896315,199.1663,10/05.0/2022,2000,g  9.0,4.0
# From MPC 78590
P/2012 C3 (PANSTARRS),e,9.0920,135.3677,344.9542,9.748681,0.0323806,0.63011148,359.9758,10/06.0/2011,2000,g 13.0,4.0
# From MPC 84931
